APSTAR 6                
1 28638U 05012A   17321.42080587 -.00000322  00000-0  00000-0 0  9991
2 28638   0.0430  81.4322 0002605 170.8698  89.8408  1.00268483 70981
SPACEWAY 1              
1 28644U 05015A   17321.45404811 -.00000105  00000-0  00000+0 0  9992
2 28644   0.0267 173.5220 0000352 264.3781  39.3390  1.00270803 46099
DIRECTV 8               
1 28659U 05019A   17321.12348093 -.00000119  00000-0  00000-0 0  9991
2 28659   0.0124 307.4464 0003013 300.0532 112.4936  1.00272397 45722
GALAXY 28 (G-28)        
1 28702U 05022A   17321.82132473 -.00000187  00000-0  00000+0 0  9998
2 28702   0.0235 290.6406 0000289 175.2077 157.8800  1.00270480 45400
EXPRESS-AM3             
1 28707U 05023A   17321.75536249 -.00000324  00000-0  00000+0 0  9998
2 28707   0.0068 303.3224 0001638  16.4062 112.1998  1.00270402 45437
THAICOM 4               
1 28786U 05028A   17320.69722387 -.00000368  00000-0  00000-0 0  9991
2 28786   0.0178 298.9071 0002057 296.2947 191.2630  1.00272020 20848
GALAXY 14 (G-14)        
1 28790U 05030A   17321.85184873  .00000034  00000-0  00000+0 0  9998
2 28790   0.0161 335.7446 0002352 260.0276   3.0060  1.00273333 44888
ANIK F1R                
1 28868U 05036A   17321.48466293 -.00000078  00000-0  00000+0 0  9997
2 28868   0.0446  83.3212 0000875 237.7640 162.8692  1.00271860 44733
GALAXY 15 (G-15)        
1 28884U 05041A   17321.71716010  .00000076  00000-0  00000+0 0  9999
2 28884   0.0118  30.7499 0002481 215.0750 296.3290  1.00270558 44208
SYRACUSE 3A             
1 28885U 05041B   17321.14285387  .00000124  00000-0  00000-0 0  9990
2 28885   0.0212 316.4227 0003115 284.9776 273.4878  1.00276824 44339
INMARSAT 4-F2           
1 28899U 05044A   17320.70503442  .00000005  00000-0  00000+0 0  9991
2 28899   2.6069  14.1736 0003206 241.6298 117.8832  1.00272933 44078
TELKOM 2                
1 28902U 05046A   17321.47841691 -.00000141  00000-0  00000-0 0  9997
2 28902   0.0254 123.3750 0000887 259.9854   2.6083  1.00271077 44013
SPACEWAY 2              
1 28903U 05046B   17321.30831497 -.00000130  00000-0  00000+0 0  9990
2 28903   0.0079  82.9299 0000189 279.0046  66.5618  1.00271803 44074
INSAT-4A                
1 28911U 05049A   17320.61407477 -.00000170  00000-0  00000+0 0  9996
2 28911   0.0381 266.4924 0006149 349.5054 103.9584  1.00271409 43661
METEOSAT-9 (MSG-2)      
1 28912U 05049B   17321.15936824  .00000062  00000-0  00000+0 0  9999
2 28912   2.5034  71.4561 0001966 245.0310 167.0437  1.00281631 43657
EUTELSAT 172A (GE-23)   
1 28924U 05052A   17321.47882854 -.00000009  00000-0  00000-0 0  9997
2 28924   0.0884  46.9220 0006008 192.4039 161.7971  1.00271332 20926
ECHOSTAR 10             
1 28935U 06003A   17321.43521306 -.00000059  00000-0  00000+0 0  9998
2 28935   0.0583  92.1270 0001400 100.7650 270.2686  1.00272109 43099
HIMAWARI-7 (MTSAT-2)    
1 28937U 06004A   17321.55663021 -.00000245  00000-0  00000-0 0  9993
2 28937   0.0366 280.5352 0003664 317.8446 163.8279  1.00274657 43053
SPAINSAT                
1 28945U 06007A   17320.92714180 -.00000220  00000-0  00000+0 0  9990
2 28945   0.0252 242.4005 0005744 353.9469 123.6226  1.00273675 42802
EUTELSAT HOT BIRD 13E   
1 28946U 06007B   17320.80810584  .00000082  00000-0  00000-0 0  9999
2 28946   0.0413 130.4897 0005585  93.0464 136.4443  1.00273448 42875
JCSAT-5A                
1 29045U 06010A   17321.44806243 -.00000331  00000-0  00000-0 0  9990
2 29045   0.0321  94.0260 0002162 170.6927  85.3315  1.00270038 42352
ASTRA 1KR               
1 29055U 06012A   17321.51993553  .00000117  00000-0  00000+0 0  9992
2 29055   0.0513 277.0064 0005257 322.4046  23.7598  1.00274514 42327
GOES 13                 
1 29155U 06018A   17321.05066764 -.00000255  00000-0  00000+0 0  9997
2 29155   0.1716 104.7590 0001557 344.2354 271.0484  1.00273779 42095
EUTELSAT 113 WEST A     
1 29162U 06020A   17321.15707554 -.00000041  00000-0  00000+0 0  9991
2 29162   0.0240  71.5260 0002939 165.7515 122.6941  1.00269655 42041
THAICOM 5               
1 29163U 06020B   17321.44907095 -.00000124  00000-0  00000+0 0  9998
2 29163   0.0159 284.0495 0005848 339.3546  33.4830  1.00270494 42103
GALAXY 16 (G-16)        
1 29236U 06023A   17321.83726485 -.00000129  00000-0  00000+0 0  9992
2 29236   0.0321  96.7880 0002331 124.7181  38.0110  1.00271752 41846
EUTELSAT HOT BIRD 13B   
1 29270U 06032A   17321.21536956  .00000083  00000-0  00000-0 0  9993
2 29270   0.0704   4.0967 0003799 261.2126 241.6943  1.00273580 15907
JCSAT-3A                
1 29272U 06033A   17321.44806243 -.00000348  00000-0  00000+0 0  9994
2 29272   0.0153 318.0677 0001909 298.8966  89.0336  1.00267597 41339
SYRACUSE 3B             
1 29273U 06033B   17321.23608326 -.00000047  00000-0  00000+0 0  9990
2 29273   0.0164 357.9776 0003935 256.6817 241.6305  1.00271476 41324
KOREASAT 5 (MUGUNGWHA 5)
1 29349U 06034A   17321.51226709 -.00000361  00000-0  00000-0 0  9997
2 29349   0.0217  38.1014 0000593 211.6516 104.4820  1.00269728  9895
ZHONGXING-22A           
1 29398U 06038A   17321.79064563 -.00000318  00000-0  00000+0 0  9994
2 29398   6.0490  56.8206 0009894 193.1760 193.2759  1.00249359 40997
DIRECTV 9S              
1 29494U 06043A   17321.49007644 -.00000117  00000-0  00000+0 0  9998
2 29494   0.0063 242.3928 0003047 359.6782 250.0090  1.00271906 40683
OPTUS D1                
1 29495U 06043B   17321.56873506 -.00000113  00000-0  00000-0 0  9992
2 29495   0.0053 321.5828 0003305 275.1166 184.8950  1.00272908 40690
XM-4 (BLUES)            
1 29520U 06049A   17320.57757566 -.00000029  00000-0  00000+0 0  9999
2 29520   0.0049  91.9156 0000269 255.2147 161.3965  1.00271975 40565
BADR-4                  
1 29526U 06051A   17321.58310042  .00000142  00000-0  00000+0 0  9999
2 29526   0.0585 321.4385 0004438 312.9676  18.3713  1.00268984 40468
FENGYUN 2D              
1 29640U 06053A   17321.64348384 -.00000363  00000-0  10000-3 0  9996
2 29640   4.7316  63.5794 0007892 315.1166  33.5168  1.00279073 40130
WILDBLUE-1              
1 29643U 06054A   17320.57271332 -.00000055  00000-0  00000+0 0  9992
2 29643   0.0175  99.4831 0001512 139.8694 271.4898  1.00271404 40116
AMC-18                  
1 29644U 06054B   17321.80046035 -.00000091  00000-0  00000+0 0  9990
2 29644   0.0286  68.2505 0003032 193.0432 338.9603  1.00269966 40138
MEASAT-3                
1 29648U 06056A   17321.39493727 -.00000246  00000-0  00000-0 0  9997
2 29648   0.0561 112.2798 0002140  80.7548  97.2924  1.00274177 19048
INSAT-4B                
1 30793U 07007A   17321.96184447 -.00000317  00000-0  00000+0 0  9994
2 30793   0.0389  83.6335 0000385  15.8747  42.0671  1.00434068 39143
SKYNET 5A               
1 30794U 07007B   17321.52409089 -.00000275  00000-0  00000-0 0  9993
2 30794   0.0694 358.2424 0004677 241.5431 100.8654  1.00274093 39277
ANIK F3                 
1 31102U 07009A   17321.61331420 -.00000003  00000-0  00000-0 0  9991
2 31102   0.0265  74.0931 0001365 151.1986 293.6303  1.00269960 15142
ASTRA 1L                
1 31306U 07016A   17321.51507637  .00000117  00000-0  00000+0 0  9993
2 31306   0.0662 303.6343 0004659 325.4101 352.3700  1.00274535 38616
GALAXY 17 (G-17)        
1 31307U 07016B   17321.82132473 -.00000177  00000-0  00000+0 0  9997
2 31307   0.0267 338.6836 0003009 267.6312  15.4556  1.00271786 38657
ZHONGXING-6B            
1 31800U 07031A   17321.51226709 -.00000365  00000-0  00000-0 0  9994
2 31800   0.0134 300.4639 0003911 299.1125 117.1591  1.00271480 38010
DIRECTV 10              
1 31862U 07032A   17321.12906921 -.00000106  00000-0  00000-0 0  9994
2 31862   0.0049  20.6580 0000059  98.1510 241.2167  1.00269726 14218
SPACEWAY 3              
1 32018U 07036A   17321.83726485 -.00000154  00000-0  00000+0 0  9997
2 32018   0.0031  42.8701 0000408  28.3789 192.3225  1.00271665 37700
BSAT-3A                 
1 32019U 07036B   17320.53967296 -.00000356  00000-0  00000-0 0  9996
2 32019   0.0522 239.5498 0004712 353.8066 126.6246  1.00271635 19070
INSAT-4CR               
1 32050U 07037A   17321.14285387  .00000121  00000-0  00000+0 0  9992
2 32050   0.0066 218.3958 0002645  20.6716 276.6234  1.00272886 37429
OPTUS D2                
1 32252U 07044A   17321.41160562 -.00000187  00000-0  00000-0 0  9995
2 32252   0.0324  96.7390 0003394 138.4222 121.6963  1.00271074 37145
INTELSAT 11 (IS-11)     
1 32253U 07044B   17321.21438123 -.00000272  00000-0  00000+0 0  9999
2 32253   0.0227 242.8608 0001323   7.0208 200.7871  1.00272774 37100
STAR ONE C1             
1 32293U 07056A   17321.02418502 -.00000281  00000-0  00000-0 0  9995
2 32293   0.0410  96.7160 0002676 143.9221 119.3600  1.00271052 20367
SKYNET 5B               
1 32294U 07056B   17321.34976562  .00000139  00000-0  00000-0 0  9997
2 32294   0.0718 351.9778 0003959 239.5226 336.1694  1.00274755 36780
ASTRA 4A (SIRIUS 4)     
1 32299U 07057A   17321.22688171  .00000029  00000-0  00000-0 0  9994
2 32299   0.0269  33.9919 0002638 207.4104 261.5705  1.00272908 20282
HORIZONS-2              
1 32388U 07063B   17321.78786652 -.00000185  00000-0  00000+0 0  9997
2 32388   0.0175 337.1986 0002372 269.9763 178.3505  1.00273184 36466
THURAYA-3               
1 32404U 08001A   17320.76772209 -.00000312  00000-0  00000+0 0  9991
2 32404   3.9952 355.4730 0004549 236.9295 198.5192  1.00273225 36105
EXPRESS-AM33            
1 32478U 08003A   17321.39493727 -.00000284  00000-0  00000+0 0  9997
2 32478   0.0220 283.8613 0000369  22.9412 348.5251  1.00271512 36184
THOR 5                  
1 32487U 08006A   17321.23170910 -.00000013  00000-0  00000+0 0  9999
2 32487   0.0129 117.4654 0002441 135.3201 246.3766  1.00273149 35753
KIZUNA (WINDS)          
1 32500U 08007A   17321.37132618 -.00000262  00000-0  00000+0 0  9990
2 32500   1.1555  89.3306 0002528 155.7688  88.2103  1.00270104 35606
AMC-14                  
1 32708U 08011A   17320.95879228  .00000090  00000-0  00000+0 0  9991
2 32708  19.3919  60.5645 0032516 353.3637   5.4468  1.00273879 36662
